IRIDIUM 112             
1 41925U 17003J   24343.49706296  .00000599  00000+0  20696-3 0  9999
2 41925  86.3952 320.5198 0002568  88.3063 271.8427 14.34216755413628
IRIDIUM 111             
1 41926U 17003K   24343.48437464  .00000677  00000+0  23474-3 0  9991
2 41926  86.3952 320.5828 0002231  84.1715 275.9735 14.34215637413607
IRIDIUM 113             
1 42803U 17039A   24343.53411188  .00000260  00000+0  85788-4 0  9991
2 42803  86.4001 194.3564 0002457  85.2719 274.8757 14.34218372391547
IRIDIUM 123             
1 42804U 17039B   24343.43605199  .00000381  00000+0  12913-3 0  9991
2 42804  86.3992 225.8393 0001891  77.1608 282.9799 14.34218018390298
IRIDIUM 120             
1 42805U 17039C   24343.52774753  .00000016  00000+0 -14138-5 0  9994
2 42805  86.3988 194.2136 0001809  87.1321 273.0082 14.34235232391531
IRIDIUM 115             
1 42806U 17039D   24343.57056689  .00000859  00000+0  24924-3 0  9997
2 42806  86.4528 194.2465 0002025  74.0476 286.0948 14.43279211394123
IRIDIUM 118             
1 42807U 17039E   24343.39800368  .00000649  00000+0  22469-3 0  9998
2 42807  86.3991 225.8557 0002080  85.6780 274.4653 14.34216447390286
IRIDIUM 117             
1 42808U 17039F   24343.20771508  .00000130  00000+0  39292-4 0  9990
2 42808  86.3991 225.8981 0001916  75.1782 284.9626 14.34215148390284
